{
  "type": "FeatureCollection",
  "features": [
    {
      "type": "Feature",
      "id": 471026204,
      "geometry": {
        "type": "Point",
        "coordinates": [
          19.439944,
          51.824258
        ]
      },
      "properties": {
        "brand": "Biedronka",
        "email": "bok@biedronka.eu",
        "name": "Biedronka",
        "name:ru": "Бедронка",
        "operator": "Jeronimo Martins Polska S.A.",
        "shop": "supermarket",
        "website": "https://www.biedronka.pl"
      }
    },
    {
      "type": "Feature",
      "id": 471027212,
      "geometry": {
        "type": "Point",
        "coordinates": [
          19.432679,
          51.820428
        ]
      },
      "properties": {
        "name": "Tesco",
        "shop": "supermarket"
      }
    },
    {
      "type": "Feature",
      "id": 722377000,
      "geometry": {
        "type": "Point",
        "coordinates": [
          19.438902,
          51.80616
        ]
      },
      "properties": {
        "brand": "Biedronka",
        "email": "bok@biedronka.eu",
        "name": "Biedronka",
        "name:ru": "Бедронка",
        "operator": "Jeronimo Martins Polska S.A.",
        "shop": "supermarket",
        "website": "https://www.biedronka.pl"
      }
    },
    {
      "type": "Feature",
      "id": 722377061,
      "geometry": {
        "type": "Point",
        "coordinates": [
          19.432658,
          51.807341
        ]
      },
      "properties": {
        "name": "Sam-Scan",
        "shop": "supermarket"
      }
    },
    {
      "type": "Feature",
      "id": 1187744758,
      "geometry": {
        "type": "Point",
        "coordinates": [
          19.460402,
          51.749848
        ]
      },
      "properties": {
        "brand": "Społem",
        "brand:wikidata": "Q11826043",
        "brand:wikipedia": "pl:Powszechna Spółdzielnia Spożywców „Społem”",
        "name": "Społem",
        "shop": "supermarket",
        "wheelchair": "no"
      }
    },
    {
      "type": "Feature",
      "id": 1205571044,
      "geometry": {
        "type": "Point",
        "coordinates": [
          19.455016,
          51.765022
        ]
      },
      "properties": {
        "name": "Stokrotka",
        "shop": "supermarket"
      }
    },
    {
      "type": "Feature",
      "id": 1234171328,
      "geometry": {
        "type": "Point",
        "coordinates": [
          19.450484,
          51.789747
        ]
      },
      "properties": {
        "brand": "Biedronka",
        "brand:wikidata": "Q857182",
        "brand:wikipedia": "pl:Biedronka (sieć handlowa)",
        "email": "bok@biedronka.eu",
        "name": "Biedronka",
        "name:ru": "Бедронка",
        "operator": "Jeronimo Martins Polska S.A.",
        "shop": "supermarket",
        "website": "https://www.biedronka.pl"
      }
    },
    {
      "type": "Feature",
      "id": 1588440180,
      "geometry": {
        "type": "Point",
        "coordinates": [
          19.423424,
          51.773873
        ]
      },
      "properties": {
        "name": "Groszek",
        "name:pl": "Groszek",
        "opening_hours": "Mo-Fr 06:00-22:00; Sa-Su 06:00-16:00",
        "shop": "supermarket"
      }
    },
    {
      "type": "Feature",
      "id": 1710755027,
      "geometry": {
        "type": "Point",
        "coordinates": [
          19.441772,
          51.760524
        ]
      },
      "properties": {
        "addr:housename": "Meblowy \"DARMAX\"",
        "addr:housenumber": "19",
        "addr:street": "Łąkowa",
        "name": "Sklep Meblowy \"DARMAX\"",
        "shop": "supermarket"
      }
    },
    {
      "type": "Feature",
      "id": 1905628799,
      "geometry": {
        "type": "Point",
        "coordinates": [
          19.402896,
          51.794707
        ]
      },
      "properties": {
        "name": "Stokrotka",
        "opening_hours": "Mo-Sa 07:00-21:00; Su 09:00-17:00",
        "shop": "supermarket"
      }
    },
    {
      "type": "Feature",
      "id": 2331794453,
      "geometry": {
        "type": "Point",
        "coordinates": [
          19.450961,
          51.7649
        ]
      },
      "properties": {
        "addr:housenumber": "26",
        "addr:postcode": "90-513",
        "addr:street": "Andrzeja Struga",
        "name": "Skarbiec Natury EkoDrogeria",
        "organic": "only",
        "shop": "supermarket",
        "website": "http://www.skarbiec-natury.pl"
      }
    },
    {
      "type": "Feature",
      "id": 2552393647,
      "geometry": {
        "type": "Point",
        "coordinates": [
          19.440711,
          51.763749
        ]
      },
      "properties": {
        "brand": "Biedronka",
        "email": "bok@biedronka.eu",
        "name": "Biedronka",
        "name:ru": "Бедронка",
        "opening_hours": "Mo-Sa 07:00-21:00; Su 09:00-20:00",
        "operator": "Jeronimo Martins Polska S.A.",
        "shop": "supermarket",
        "website": "https://www.biedronka.pl"
      }
    },
    {
      "type": "Feature",
      "id": 3296400866,
      "geometry": {
        "type": "Point",
        "coordinates": [
          19.479982,
          51.789716
        ]
      },
      "properties": {
        "name": "Carrefour Express",
        "shop": "supermarket"
      }
    },
    {
      "type": "Feature",
      "id": 3782586461,
      "geometry": {
        "type": "Point",
        "coordinates": [
          19.458252,
          51.765473
        ]
      },
      "properties": {
        "addr:city:en": "Lodz",
        "brand": "Biedronka",
        "email": "bok@biedronka.eu",
        "name": "Biedronka",
        "name:ru": "Бедронка",
        "operator": "Jeronimo Martins Polska S.A.",
        "shop": "supermarket",
        "website": "https://www.biedronka.pl"
      }
    },
    {
      "type": "Feature",
      "id": 4060549253,
      "geometry": {
        "type": "Point",
        "coordinates": [
          19.464705,
          51.758497
        ]
      },
      "properties": {
        "addr:city": "Łódź",
        "addr:housenumber": "15/23",
        "addr:postcode": "90-307",
        "addr:street": "Aleja Marszałka Józefa Piłsudskiego",
        "brand": "Lidl",
        "brand:wikidata": "Q151954",
        "brand:wikipedia": "en:Lidl",
        "level": "-1",
        "name": "Lidl",
        "payment:cards": "yes",
        "payment:cash": "yes",
        "payment:coins": "yes",
        "payment:credit_cards": "yes",
        "shop": "supermarket",
        "start_date": "29.11.2018"
      }
    },
    {
      "type": "Feature",
      "id": 4347212437,
      "geometry": {
        "type": "Point",
        "coordinates": [
          19.461147,
          51.760062
        ]
      },
      "properties": {
        "brand": "Biedronka",
        "brand:wikidata": "Q857182",
        "brand:wikipedia": "pl:Biedronka (sieć handlowa)",
        "email": "bok@biedronka.eu",
        "name": "Biedronka",
        "name:ru": "Бедронка",
        "operator": "Jeronimo Martins Polska S.A.",
        "shop": "supermarket",
        "website": "https://www.biedronka.pl"
      }
    },
    {
      "type": "Feature",
      "id": 4388231289,
      "geometry": {
        "type": "Point",
        "coordinates": [
          19.456855,
          51.799541
        ]
      },
      "properties": {
        "name": "Sklep z żywnością ekologiczną",
        "name:pl": "Sklep z żywnością ekologiczną",
        "shop": "supermarket"
      }
    },
    {
      "type": "Feature",
      "id": 4438880535,
      "geometry": {
        "type": "Point",
        "coordinates": [
          19.456041,
          51.773066
        ]
      },
      "properties": {
        "addr:city": "Łódź",
        "addr:housenumber": "30/32",
        "addr:postcode": "90-269",
        "addr:street": "Piotrkowska",
        "name": "Carrefour Express",
        "opening_hours": "Mo-Su 6:00-24:00",
        "operator:wikidata": "Q217599",
        "operator:wikipedia": "pl:Carrefour",
        "shop": "supermarket",
        "website": "https://www.carrefour.pl/"
      }
    },
    {
      "type": "Feature",
      "id": 4580876790,
      "geometry": {
        "type": "Point",
        "coordinates": [
          19.455647,
          51.791525
        ]
      },
      "properties": {
        "name": "Sklep z nabiałem Mlekovitka",
        "name:pl": "Sklep z nabiałem Mlekovitka",
        "shop": "supermarket"
      }
    },
    {
      "type": "Feature",
      "id": 5207398616,
      "geometry": {
        "type": "Point",
        "coordinates": [
          19.484262,
          51.781565
        ]
      },
      "properties": {
        "name": "Lewiatan",
        "shop": "supermarket"
      }
    },
    {
      "type": "Feature",
      "id": 5752716240,
      "geometry": {
        "type": "Point",
        "coordinates": [
          19.457715,
          51.758629
        ]
      },
      "properties": {
        "brand": "Społem",
        "brand:wikidata": "Q11826043",
        "brand:wikipedia": "pl:Powszechna Spółdzielnia Spożywców „Społem”",
        "name": "Społem",
        "operator": "Społem",
        "shop": "supermarket"
      }
    },
    {
      "type": "Feature",
      "id": 5786556671,
      "geometry": {
        "type": "Point",
        "coordinates": [
          19.469621,
          51.777771
        ]
      },
      "properties": {
        "addr:city": "Łódź",
        "addr:country": "PL",
        "addr:housenumber": "65A",
        "addr:postcode": "90-218",
        "addr:street": "Pomorska",
        "name": "Netto",
        "shop": "supermarket"
      }
    },
    {
      "type": "Feature",
      "id": 6255906976,
      "geometry": {
        "type": "Point",
        "coordinates": [
          19.475535,
          51.762198
        ]
      },
      "properties": {
        "brand": "Biedronka",
        "brand:wikidata": "Q857182",
        "brand:wikipedia": "en:Biedronka",
        "email": "bok@biedronka.eu",
        "name": "Biedronka",
        "name:ru": "Бедронка",
        "shop": "supermarket",
        "website": "https://www.biedronka.pl"
      }
    },
    {
      "type": "Feature",
      "id": 27523496,
      "geometry": {
        "type": "LineString",
        "coordinates": [
          [
            19.421962,
            51.788502
          ],
          [
            19.421906,
            51.788405
          ],
          [
            19.421892,
            51.788405
          ],
          [
            19.421851,
            51.788394
          ],
          [
            19.421813,
            51.788338
          ],
          [
            19.421827,
            51.788322
          ],
          [
            19.421834,
            51.788312
          ],
          [
            19.421844,
            51.788308
          ],
          [
            19.421813,
            51.788258
          ],
          [
            19.42231,
            51.78814
          ],
          [
            19.422462,
            51.788381
          ],
          [
            19.421962,
            51.788502
          ]
        ]
      },
      "properties": {
        "addr:city": "Łódź",
        "addr:housenumber": "156",
        "addr:street": "Aleja Włókniarzy",
        "building": "yes",
        "name": "Tesco",
        "opening_hours": "Mo-Sa 06:00-22:00",
        "shop": "supermarket",
        "source:addr": "EMUiA (emuia.geoportal.gov.pl)",
        "website": "https://tesco.pl/sklepy/centra-handlowe/lodz-al-wlokniarzy-156/"
      }
    },
    {
      "type": "Feature",
      "id": 27747423,
      "geometry": {
        "type": "LineString",
        "coordinates": [
          [
            19.46821,
            51.799354
          ],
          [
            19.468123,
            51.798408
          ],
          [
            19.469068,
            51.798376
          ],
          [
            19.46921,
            51.798176
          ],
          [
            19.470097,
            51.798443
          ],
          [
            19.470159,
            51.799294
          ],
          [
            19.469841,
            51.799304
          ],
          [
            19.468631,
            51.799341
          ],
          [
            19.46821,
            51.799354
          ]
        ]
      },
      "properties": {
        "addr:city": "Łódź",
        "addr:housenumber": "45",
        "addr:street": "Inflancka",
        "building": "retail",
        "building:levels": "2",
        "name": "E. Leclerc",
        "operator": "E. Leclerc",
        "shop": "supermarket",
        "source:addr": "EMUiA (emuia.geoportal.gov.pl)"
      }
    },
    {
      "type": "Feature",
      "id": 27747555,
      "geometry": {
        "type": "LineString",
        "coordinates": [
          [
            19.465201,
            51.799726
          ],
          [
            19.465181,
            51.799523
          ],
          [
            19.465178,
            51.799489
          ],
          [
            19.465168,
            51.799386
          ],
          [
            19.465527,
            51.799373
          ],
          [
            19.465535,
            51.799453
          ],
          [
            19.465537,
            51.799476
          ],
          [
            19.46556,
            51.799713
          ],
          [
            19.465201,
            51.799726
          ]
        ]
      },
      "properties": {
        "addr:city": "Łódź",
        "addr:housenumber": "104",
        "addr:street": "Marysińska",
        "building": "yes",
        "name": "Tesco",
        "shop": "supermarket",
        "source:addr": "EMUiA (emuia.geoportal.gov.pl)"
      }
    },
    {
      "type": "Feature",
      "id": 27803185,
      "geometry": {
        "type": "LineString",
        "coordinates": [
          [
            19.458069,
            51.795987
          ],
          [
            19.458036,
            51.795645
          ],
          [
            19.458568,
            51.795625
          ],
          [
            19.458601,
            51.795967
          ],
          [
            19.458069,
            51.795987
          ]
        ]
      },
      "properties": {
        "addr:city": "Łódź",
        "addr:country": "PL",
        "addr:housenumber": "2",
        "addr:postcode": "91-843",
        "addr:street": "Kowalska",
        "brand": "Biedronka",
        "brand:wikidata": "Q857182",
        "brand:wikipedia": "pl:Biedronka (sieć handlowa)",
        "building": "retail",
        "building:levels": "1",
        "name": "Biedronka",
        "operator": "Jeronimo Martins Polska S.A.",
        "shop": "supermarket",
        "source": "mapa.lodz.pl",
        "source:addr": "EMUiA (emuia.geoportal.gov.pl)"
      }
    },
    {
      "type": "Feature",
      "id": 37550743,
      "geometry": {
        "type": "LineString",
        "coordinates": [
          [
            19.449729,
            51.778374
          ],
          [
            19.45,
            51.778397
          ],
          [
            19.450008,
            51.778365
          ],
          [
            19.450083,
            51.778035
          ],
          [
            19.45003,
            51.77803
          ],
          [
            19.450041,
            51.777993
          ],
          [
            19.449766,
            51.77797
          ],
          [
            19.44971,
            51.778049
          ],
          [
            19.449689,
            51.778074
          ],
          [
            19.449736,
            51.778079
          ],
          [
            19.44973,
            51.778108
          ],
          [
            19.449719,
            51.778158
          ],
          [
            19.449776,
            51.778164
          ],
          [
            19.449736,
            51.778345
          ],
          [
            19.449729,
            51.778374
          ]
        ]
      },
      "properties": {
        "addr:city": "Łódź",
        "addr:housenumber": "18",
        "addr:street": "Ogrodowa",
        "brand": "Biedronka",
        "brand:wikidata": "Q857182",
        "brand:wikipedia": "pl:Biedronka (sieć handlowa)",
        "building": "retail",
        "name": "Biedronka",
        "operator": "Jeronimo Martins Polska S.A.",
        "shop": "supermarket"
      }
    },
    {
      "type": "Feature",
      "id": 101076952,
      "geometry": {
        "type": "LineString",
        "coordinates": [
          [
            19.390867,
            51.797706
          ],
          [
            19.390307,
            51.797816
          ],
          [
            19.390125,
            51.797462
          ],
          [
            19.390685,
            51.797352
          ],
          [
            19.390837,
            51.797647
          ],
          [
            19.390867,
            51.797706
          ]
        ]
      },
      "properties": {
        "addr:city": "Łódź",
        "addr:housenumber": "19",
        "addr:street": "Grabieniec",
        "brand": "Carrefour Market",
        "brand:wikidata": "Q2689639",
        "building": "yes",
        "name": "Carrefour Market",
        "shop": "supermarket",
        "source:addr": "EMUiA (emuia.geoportal.gov.pl)"
      }
    },
    {
      "type": "Feature",
      "id": 102851160,
      "geometry": {
        "type": "LineString",
        "coordinates": [
          [
            19.424184,
            51.815299
          ],
          [
            19.423687,
            51.815181
          ],
          [
            19.423816,
            51.814974
          ],
          [
            19.424313,
            51.815092
          ],
          [
            19.424184,
            51.815299
          ]
        ]
      },
      "properties": {
        "addr:city": "Łódź",
        "addr:housenumber": "5A",
        "addr:postcode": "91-370",
        "addr:street": "11 Listopada",
        "building": "yes",
        "building:levels": "1",
        "name": "Tesco",
        "operator": "Tesco Polska Sp. z o.o.",
        "shop": "supermarket",
        "source:addr": "EMUiA (emuia.geoportal.gov.pl)"
      }
    },
    {
      "type": "Feature",
      "id": 102877985,
      "geometry": {
        "type": "LineString",
        "coordinates": [
          [
            19.417882,
            51.818516
          ],
          [
            19.418075,
            51.818197
          ],
          [
            19.418411,
            51.818274
          ],
          [
            19.418227,
            51.818581
          ],
          [
            19.418141,
            51.818561
          ],
          [
            19.41813,
            51.818572
          ],
          [
            19.417882,
            51.818516
          ]
        ]
      },
      "properties": {
        "addr:city": "Łódź",
        "addr:housenumber": "36",
        "addr:street": "11 Listopada",
        "building": "yes",
        "name": "Supersam Samscan",
        "shop": "supermarket",
        "source:addr": "EMUiA (emuia.geoportal.gov.pl)"
      }
    },
    {
      "type": "Feature",
      "id": 103127651,
      "geometry": {
        "type": "LineString",
        "coordinates": [
          [
            19.445439,
            51.791949
          ],
          [
            19.445315,
            51.791659
          ],
          [
            19.446541,
            51.791457
          ],
          [
            19.446667,
            51.791746
          ],
          [
            19.446645,
            51.79175
          ],
          [
            19.445439,
            51.791949
          ]
        ]
      },
      "properties": {
        "addr:city": "Łódź",
        "addr:country": "PL",
        "addr:housenumber": "104a",
        "addr:postcode": "91-303",
        "addr:street": "Zgierska",
        "building": "yes",
        "name": "Kaufland",
        "shop": "supermarket",
        "source": "mapa.lodz.pl",
        "source:addr": "EMUiA (emuia.geoportal.gov.pl)"
      }
    },
    {
      "type": "Feature",
      "id": 103422302,
      "geometry": {
        "type": "LineString",
        "coordinates": [
          [
            19.434274,
            51.790284
          ],
          [
            19.434394,
            51.790257
          ],
          [
            19.434431,
            51.790249
          ],
          [
            19.434461,
            51.790299
          ],
          [
            19.434574,
            51.790494
          ],
          [
            19.434416,
            51.790529
          ],
          [
            19.434027,
            51.790615
          ],
          [
            19.434029,
            51.790619
          ],
          [
            19.434054,
            51.790662
          ],
          [
            19.43391,
            51.790694
          ],
          [
            19.433763,
            51.79044
          ],
          [
            19.433753,
            51.790423
          ],
          [
            19.433931,
            51.790384
          ],
          [
            19.433999,
            51.790368
          ],
          [
            19.433972,
            51.790322
          ],
          [
            19.434164,
            51.790279
          ],
          [
            19.434259,
            51.790258
          ],
          [
            19.434274,
            51.790284
          ]
        ]
      },
      "properties": {
        "addr:city": "Łódź",
        "addr:housenumber": "103/105",
        "addr:street": "Bolesława Limanowskiego",
        "building": "yes",
        "building:levels": "1",
        "name": "Lidl",
        "opening_hours": "Mo-Sa 08:00-21:00, Su 09:00-18:00",
        "shop": "supermarket",
        "source": "mapa.lodz.pl"
      }
    },
    {
      "type": "Feature",
      "id": 103694658,
      "geometry": {
        "type": "LineString",
        "coordinates": [
          [
            19.453787,
            51.794872
          ],
          [
            19.453819,
            51.794881
          ],
          [
            19.453849,
            51.79484
          ],
          [
            19.454258,
            51.794955
          ],
          [
            19.454208,
            51.795023
          ],
          [
            19.454402,
            51.795078
          ],
          [
            19.454182,
            51.79538
          ],
          [
            19.453983,
            51.795327
          ],
          [
            19.453957,
            51.795362
          ],
          [
            19.453632,
            51.795269
          ],
          [
            19.453667,
            51.795223
          ],
          [
            19.453979,
            51.795311
          ],
          [
            19.454144,
            51.795073
          ],
          [
            19.453909,
            51.795012
          ],
          [
            19.453775,
            51.795211
          ],
          [
            19.453576,
            51.79516
          ],
          [
            19.453787,
            51.794872
          ]
        ]
      },
      "properties": {
        "addr:city": "Łódź",
        "addr:country": "PL",
        "addr:housenumber": "2",
        "addr:postcode": "91-463",
        "addr:street": "Stefana",
        "building": "yes",
        "shop": "supermarket",
        "source": "mapa.lodz.pl",
        "source:addr": "EMUiA (emuia.geoportal.gov.pl)"
      }
    },
    {
      "type": "Feature",
      "id": 103695894,
      "geometry": {
        "type": "LineString",
        "coordinates": [
          [
            19.460499,
            51.798249
          ],
          [
            19.460058,
            51.798267
          ],
          [
            19.460054,
            51.798233
          ],
          [
            19.460019,
            51.797904
          ],
          [
            19.46046,
            51.797886
          ],
          [
            19.460499,
            51.798249
          ]
        ]
      },
      "properties": {
        "addr:city": "Łódź",
        "addr:country": "PL",
        "addr:housenumber": "142/154",
        "addr:postcode": "91-857",
        "addr:street": "Franciszkańska",
        "building": "yes",
        "contact:website": "http://www.netto.pl",
        "name": "Netto",
        "opening_hours": "Mo-Sa 06:00-21:00;Su 08:00-20:00",
        "shop": "supermarket",
        "source": "mapa.lodz.pl",
        "source:addr": "EMUiA (emuia.geoportal.gov.pl)",
        "website": "http://www.netto.pl"
      }
    },
    {
      "type": "Feature",
      "id": 104693245,
      "geometry": {
        "type": "LineString",
        "coordinates": [
          [
            19.455774,
            51.799428
          ],
          [
            19.455874,
            51.799289
          ],
          [
            19.455897,
            51.799258
          ],
          [
            19.455451,
            51.799132
          ],
          [
            19.455448,
            51.799136
          ],
          [
            19.45538,
            51.799229
          ],
          [
            19.455315,
            51.799316
          ],
          [
            19.455453,
            51.799355
          ],
          [
            19.455406,
            51.79942
          ],
          [
            19.455493,
            51.799444
          ],
          [
            19.455552,
            51.799363
          ],
          [
            19.455774,
            51.799428
          ]
        ]
      },
      "properties": {
        "addr:city": "Łódź",
        "addr:country": "PL",
        "addr:housenumber": "118",
        "addr:postcode": "91-471",
        "addr:street": "Łagiewnicka",
        "building": "yes",
        "name": "Delikatesy Centrum",
        "shop": "supermarket",
        "source": "mapa.lodz.pl",
        "source:addr": "EMUiA (emuia.geoportal.gov.pl)"
      }
    },
    {
      "type": "Feature",
      "id": 105636090,
      "geometry": {
        "type": "LineString",
        "coordinates": [
          [
            19.469356,
            51.778777
          ],
          [
            19.469359,
            51.778763
          ],
          [
            19.469369,
            51.778713
          ],
          [
            19.469401,
            51.778555
          ],
          [
            19.469423,
            51.77845
          ],
          [
            19.469692,
            51.778472
          ],
          [
            19.469625,
            51.778799
          ],
          [
            19.469356,
            51.778777
          ]
        ]
      },
      "properties": {
        "addr:city": "Łódź",
        "addr:housenumber": "58",
        "addr:street": "Pomorska",
        "building": "supermarket",
        "building:levels": "2",
        "name": "Biedronka",
        "operator": "Jeronimo Martins Polska S.A.",
        "shop": "supermarket",
        "source:addr": "EMUiA (emuia.geoportal.gov.pl)"
      }
    },
    {
      "type": "Feature",
      "id": 106778168,
      "geometry": {
        "type": "LineString",
        "coordinates": [
          [
            19.465304,
            51.793621
          ],
          [
            19.464954,
            51.793621
          ],
          [
            19.464954,
            51.793281
          ],
          [
            19.465304,
            51.793281
          ],
          [
            19.465304,
            51.793621
          ]
        ]
      },
      "properties": {
        "addr:city": "Łódź",
        "addr:housenumber": "76/80",
        "addr:street": "Marysińska",
        "building": "yes",
        "name": "Stokrotka",
        "shop": "supermarket",
        "source:addr": "EMUiA (emuia.geoportal.gov.pl)"
      }
    },
    {
      "type": "Feature",
      "id": 106923174,
      "geometry": {
        "type": "LineString",
        "coordinates": [
          [
            19.453623,
            51.785044
          ],
          [
            19.453618,
            51.785079
          ],
          [
            19.453613,
            51.785123
          ],
          [
            19.453552,
            51.785136
          ],
          [
            19.453461,
            51.785155
          ],
          [
            19.453412,
            51.785164
          ],
          [
            19.453334,
            51.785162
          ],
          [
            19.453331,
            51.785184
          ],
          [
            19.453285,
            51.785182
          ],
          [
            19.453119,
            51.785194
          ],
          [
            19.452997,
            51.785202
          ],
          [
            19.452977,
            51.7852
          ],
          [
            19.453017,
            51.785006
          ],
          [
            19.453027,
            51.784996
          ],
          [
            19.453044,
            51.784993
          ],
          [
            19.453195,
            51.785009
          ],
          [
            19.45332,
            51.785013
          ],
          [
            19.453362,
            51.785015
          ],
          [
            19.453623,
            51.785044
          ]
        ]
      },
      "properties": {
        "addr:city": "Łódź",
        "addr:housenumber": "13/15",
        "addr:street": "Zgierska",
        "building": "supermarket",
        "building:levels": "1",
        "name": "Biedronka",
        "operator": "Jeronimo Martins Polska S.A.",
        "shop": "supermarket",
        "source:addr": "EMUiA (emuia.geoportal.gov.pl)"
      }
    },
    {
      "type": "Feature",
      "id": 111683288,
      "geometry": {
        "type": "LineString",
        "coordinates": [
          [
            19.43417,
            51.759042
          ],
          [
            19.43381,
            51.758913
          ],
          [
            19.433772,
            51.758954
          ],
          [
            19.433641,
            51.758907
          ],
          [
            19.433713,
            51.75883
          ],
          [
            19.433702,
            51.758826
          ],
          [
            19.433729,
            51.758798
          ],
          [
            19.433723,
            51.758796
          ],
          [
            19.433747,
            51.758769
          ],
          [
            19.433742,
            51.758767
          ],
          [
            19.433768,
            51.758739
          ],
          [
            19.433762,
            51.758738
          ],
          [
            19.433788,
            51.75871
          ],
          [
            19.433782,
            51.758707
          ],
          [
            19.433807,
            51.75868
          ],
          [
            19.433801,
            51.758678
          ],
          [
            19.433827,
            51.75865
          ],
          [
            19.433822,
            51.758648
          ],
          [
            19.433849,
            51.758619
          ],
          [
            19.433859,
            51.758623
          ],
          [
            19.433896,
            51.758583
          ],
          [
            19.434422,
            51.758771
          ],
          [
            19.43417,
            51.759042
          ]
        ]
      },
      "properties": {
        "addr:city": "Łódź",
        "addr:housenumber": "236",
        "addr:street": "Aleja Włókniarzy",
        "building": "yes",
        "name": "Market \"KOMFORT\"",
        "shop": "supermarket",
        "source:addr": "EMUiA (emuia.geoportal.gov.pl)",
        "wheelchair": "yes"
      }
    },
    {
      "type": "Feature",
      "id": 114648648,
      "geometry": {
        "type": "LineString",
        "coordinates": [
          [
            19.490135,
            51.778974
          ],
          [
            19.490154,
            51.778866
          ],
          [
            19.490109,
            51.778863
          ],
          [
            19.490114,
            51.778837
          ],
          [
            19.490159,
            51.77884
          ],
          [
            19.490164,
            51.778808
          ],
          [
            19.490901,
            51.778859
          ],
          [
            19.491184,
            51.778878
          ],
          [
            19.491162,
            51.779001
          ],
          [
            19.491154,
            51.779044
          ],
          [
            19.490135,
            51.778974
          ]
        ]
      },
      "properties": {
        "addr:city": "Łódź",
        "addr:housenumber": "3",
        "addr:street": "Tamka",
        "building": "supermarket",
        "name": "Biedronka",
        "operator": "Jeronimo Martins Polska S.A.",
        "shop": "supermarket",
        "source:addr": "EMUiA (emuia.geoportal.gov.pl)"
      }
    },
    {
      "type": "Feature",
      "id": 126757920,
      "geometry": {
        "type": "LineString",
        "coordinates": [
          [
            19.453377,
            51.792898
          ],
          [
            19.453375,
            51.792872
          ],
          [
            19.453351,
            51.792873
          ],
          [
            19.453327,
            51.792496
          ],
          [
            19.453303,
            51.792497
          ],
          [
            19.453298,
            51.792413
          ],
          [
            19.453132,
            51.792416
          ],
          [
            19.453139,
            51.792499
          ],
          [
            19.452966,
            51.792504
          ],
          [
            19.452988,
            51.792887
          ],
          [
            19.453195,
            51.792882
          ],
          [
            19.4532,
            51.792902
          ],
          [
            19.453377,
            51.792898
          ]
        ]
      },
      "properties": {
        "addr:city": "Łódź",
        "brand": "Biedronka",
        "brand:wikidata": "Q857182",
        "brand:wikipedia": "pl:Biedronka (sieć handlowa)",
        "building": "retail",
        "name": "Biedronka",
        "operator": "Jeronimo Martins Polska S.A.",
        "shop": "supermarket",
        "source": "mapa.lodz.pl"
      }
    },
    {
      "type": "Feature",
      "id": 136107334,
      "geometry": {
        "type": "LineString",
        "coordinates": [
          [
            19.471344,
            51.777611
          ],
          [
            19.471366,
            51.777515
          ],
          [
            19.471383,
            51.777445
          ],
          [
            19.471441,
            51.777191
          ],
          [
            19.472318,
            51.777265
          ],
          [
            19.472289,
            51.777393
          ],
          [
            19.472241,
            51.777607
          ],
          [
            19.472168,
            51.7776
          ],
          [
            19.472149,
            51.777679
          ],
          [
            19.471464,
            51.777621
          ],
          [
            19.471344,
            51.777611
          ]
        ]
      },
      "properties": {
        "building": "yes",
        "name": "Lidl",
        "opening_hours": "Mo-Sa 08:00-21:00; Su 08:00-18:00",
        "shop": "supermarket"
      }
    },
    {
      "type": "Feature",
      "id": 138122469,
      "geometry": {
        "type": "LineString",
        "coordinates": [
          [
            19.431834,
            51.773846
          ],
          [
            19.431941,
            51.773872
          ],
          [
            19.431914,
            51.773914
          ],
          [
            19.431964,
            51.773926
          ],
          [
            19.431992,
            51.773882
          ],
          [
            19.43243,
            51.773987
          ],
          [
            19.432551,
            51.773796
          ],
          [
            19.432613,
            51.773811
          ],
          [
            19.432628,
            51.773786
          ],
          [
            19.431972,
            51.773628
          ],
          [
            19.431834,
            51.773846
          ]
        ]
      },
      "properties": {
        "addr:city": "Łódź",
        "addr:housenumber": "8",
        "addr:street": "Srebrzyńska",
        "building": "yes",
        "building:levels": "1",
        "name": "Netto",
        "shop": "supermarket"
      }
    },
    {
      "type": "Feature",
      "id": 139832348,
      "geometry": {
        "type": "LineString",
        "coordinates": [
          [
            19.446416,
            51.770206
          ],
          [
            19.44654,
            51.770217
          ],
          [
            19.446648,
            51.770226
          ],
          [
            19.446734,
            51.770234
          ],
          [
            19.446683,
            51.770437
          ],
          [
            19.446617,
            51.770431
          ],
          [
            19.446577,
            51.770428
          ],
          [
            19.446391,
            51.770411
          ],
          [
            19.446363,
            51.770407
          ],
          [
            19.446369,
            51.770387
          ],
          [
            19.446378,
            51.770356
          ],
          [
            19.446371,
            51.77035
          ],
          [
            19.446365,
            51.770339
          ],
          [
            19.446364,
            51.770324
          ],
          [
            19.446367,
            51.770314
          ],
          [
            19.446374,
            51.770304
          ],
          [
            19.446395,
            51.770289
          ],
          [
            19.446416,
            51.770206
          ]
        ]
      },
      "properties": {
        "addr:city": "Łódź",
        "addr:housenumber": "32",
        "addr:street": "Stefana Żeromskiego",
        "brand": "Biedronka",
        "brand:wikidata": "Q857182",
        "brand:wikipedia": "pl:Biedronka (sieć handlowa)",
        "building": "retail",
        "building:levels": "1",
        "email": "bok@biedronka.eu",
        "name": "Biedronka",
        "name:ru": "Бедронка",
        "opening_hours": "Mo-Sa 06:30-22:00; Su 08:00-21:00",
        "operator": "Jeronimo Martins Polska S.A.",
        "shop": "supermarket",
        "source": "mapa.lodz.pl",
        "website": "http://www.biedronka.pl/"
      }
    },
    {
      "type": "Feature",
      "id": 152316255,
      "geometry": {
        "type": "LineString",
        "coordinates": [
          [
            19.455529,
            51.757689
          ],
          [
            19.455553,
            51.757583
          ],
          [
            19.45584,
            51.757608
          ],
          [
            19.455819,
            51.757701
          ],
          [
            19.455816,
            51.757713
          ],
          [
            19.455529,
            51.757689
          ]
        ]
      },
      "properties": {
        "addr:city": "Łódź",
        "addr:housenumber": "103/105",
        "addr:street": "Aleja Tadeusza Kościuszki",
        "brand": "Biedronka",
        "brand:wikidata": "Q857182",
        "brand:wikipedia": "pl:Biedronka (sieć handlowa)",
        "building": "retail",
        "building:levels": "1",
        "name": "Biedronka",
        "operator": "Jeronimo Martins Polska S.A.",
        "shop": "supermarket",
        "source:addr": "EMUiA (emuia.geoportal.gov.pl)"
      }
    },
    {
      "type": "Feature",
      "id": 174506816,
      "geometry": {
        "type": "LineString",
        "coordinates": [
          [
            19.450695,
            51.77616
          ],
          [
            19.450978,
            51.776188
          ],
          [
            19.45105,
            51.775886
          ],
          [
            19.450766,
            51.775856
          ],
          [
            19.450738,
            51.775982
          ],
          [
            19.450706,
            51.77611
          ],
          [
            19.450695,
            51.77616
          ]
        ]
      },
      "properties": {
        "addr:housenumber": "16",
        "addr:postcode": "90-701",
        "addr:street": "Legionów",
        "building": "yes",
        "fax": "+48 42 63 34 836",
        "name": "Carrefour Express",
        "opening_hours": "Mo-Sa 07:00-21:00; Su 09:00-19:00",
        "operator:wikidata": "Q217599",
        "operator:wikipedia": "pl:Carrefour",
        "phone": "+48 42 63 34 836",
        "shop": "supermarket",
        "source": "mapa.lodz.pl",
        "website": "https://www.carrefour.pl/"
      }
    },
    {
      "type": "Feature",
      "id": 180383703,
      "geometry": {
        "type": "LineString",
        "coordinates": [
          [
            19.441947,
            51.779505
          ],
          [
            19.441935,
            51.779557
          ],
          [
            19.441019,
            51.779474
          ],
          [
            19.441031,
            51.779422
          ],
          [
            19.441339,
            51.778132
          ],
          [
            19.44135,
            51.778084
          ],
          [
            19.441364,
            51.778085
          ],
          [
            19.441702,
            51.778116
          ],
          [
            19.441821,
            51.778127
          ],
          [
            19.442501,
            51.778189
          ],
          [
            19.442489,
            51.778235
          ],
          [
            19.44238,
            51.778225
          ],
          [
            19.442324,
            51.77822
          ],
          [
            19.44231,
            51.778279
          ],
          [
            19.442268,
            51.778453
          ],
          [
            19.442431,
            51.778468
          ],
          [
            19.442405,
            51.778576
          ],
          [
            19.442178,
            51.779526
          ],
          [
            19.441947,
            51.779505
          ]
        ]
      },
      "properties": {
        "addr:city": "Łódź",
        "addr:housenumber": "5",
        "addr:postcode": "91-071",
        "addr:street": "Jana Karskiego",
        "brand": "Auchan",
        "brand:wikidata": "Q758603",
        "brand:wikipedia": "en:Auchan",
        "building": "yes",
        "level": "1",
        "name": "Auchan",
        "opening_hours": "Mo-Sa 08:00-22:00; Su 09:00-21:00; PH off",
        "operator": "Auchan Polska Sp. z o.o.",
        "shop": "supermarket",
        "website": "https://www.auchan.pl/"
      }
    },
    {
      "type": "Feature",
      "id": 184312038,
      "geometry": {
        "type": "LineString",
        "coordinates": [
          [
            19.449501,
            51.766865
          ],
          [
            19.449503,
            51.766858
          ],
          [
            19.4495,
            51.766857
          ],
          [
            19.449523,
            51.766757
          ],
          [
            19.449525,
            51.766757
          ],
          [
            19.449526,
            51.766751
          ],
          [
            19.44949,
            51.766745
          ],
          [
            19.448529,
            51.766572
          ],
          [
            19.448484,
            51.76667
          ],
          [
            19.448706,
            51.766713
          ],
          [
            19.448852,
            51.766742
          ],
          [
            19.448988,
            51.766767
          ],
          [
            19.449141,
            51.766796
          ],
          [
            19.449225,
            51.766813
          ],
          [
            19.449355,
            51.766838
          ],
          [
            19.449463,
            51.766858
          ],
          [
            19.449501,
            51.766865
          ]
        ]
      },
      "properties": {
        "building": "yes",
        "name": "Tesco",
        "opening_hours": "Mo-Sa 07:00-22:00; Su 09:00-20:00",
        "shop": "supermarket"
      }
    },
    {
      "type": "Feature",
      "id": 190005835,
      "geometry": {
        "type": "LineString",
        "coordinates": [
          [
            19.481025,
            51.772204
          ],
          [
            19.481123,
            51.77177
          ],
          [
            19.481645,
            51.771815
          ],
          [
            19.481548,
            51.772249
          ],
          [
            19.481025,
            51.772204
          ]
        ]
      },
      "properties": {
        "addr:city": "Łódź",
        "addr:housenumber": "31C",
        "addr:street": "Doktora Stefana Kopcińskiego",
        "building": "supermarket",
        "name": "Tesco",
        "shop": "supermarket",
        "source:addr": "EMUiA (emuia.geoportal.gov.pl)"
      }
    },
    {
      "type": "Feature",
      "id": 199266679,
      "geometry": {
        "type": "LineString",
        "coordinates": [
          [
            19.420629,
            51.779012
          ],
          [
            19.420594,
            51.779038
          ],
          [
            19.420559,
            51.779063
          ],
          [
            19.420158,
            51.779083
          ],
          [
            19.420066,
            51.778399
          ],
          [
            19.420247,
            51.778389
          ],
          [
            19.420254,
            51.778443
          ],
          [
            19.420551,
            51.778428
          ],
          [
            19.420629,
            51.779012
          ]
        ]
      },
      "properties": {
        "addr:city": "Łódź",
        "addr:housenumber": "3/11",
        "addr:street": "Tomasza Zana",
        "building": "yes",
        "name": "Lidl",
        "opening_hours": "Mo-Sa 08:00-21:00, Su 09:00-18:00",
        "shop": "supermarket",
        "source": "mapa.lodz.pl",
        "source:addr": "EMUiA (emuia.geoportal.gov.pl)"
      }
    },
    {
      "type": "Feature",
      "id": 199268132,
      "geometry": {
        "type": "LineString",
        "coordinates": [
          [
            19.425973,
            51.772922
          ],
          [
            19.425122,
            51.772773
          ],
          [
            19.424762,
            51.772709
          ],
          [
            19.425153,
            51.771851
          ],
          [
            19.425626,
            51.771934
          ],
          [
            19.425669,
            51.771927
          ],
          [
            19.425675,
            51.771945
          ],
          [
            19.425682,
            51.771962
          ],
          [
            19.425733,
            51.771953
          ],
          [
            19.425776,
            51.771961
          ],
          [
            19.425822,
            51.771954
          ],
          [
            19.425828,
            51.77197
          ],
          [
            19.425835,
            51.771988
          ],
          [
            19.425887,
            51.77198
          ],
          [
            19.42624,
            51.772042
          ],
          [
            19.426284,
            51.772035
          ],
          [
            19.426289,
            51.772047
          ],
          [
            19.426298,
            51.77207
          ],
          [
            19.42635,
            51.772061
          ],
          [
            19.426844,
            51.772147
          ],
          [
            19.426757,
            51.772338
          ],
          [
            19.426855,
            51.772356
          ],
          [
            19.426868,
            51.772328
          ],
          [
            19.426973,
            51.772346
          ],
          [
            19.426961,
            51.772375
          ],
          [
            19.427215,
            51.77242
          ],
          [
            19.426911,
            51.773085
          ],
          [
            19.426659,
            51.773042
          ],
          [
            19.42655,
            51.773023
          ],
          [
            19.426104,
            51.772945
          ],
          [
            19.425973,
            51.772922
          ]
        ]
      },
      "properties": {
        "addr:city": "Łódź",
        "addr:housenumber": "8",
        "addr:street": "Marcina Kasprzaka",
        "building": "yes",
        "building:levels": "1.0",
        "name": "makro",
        "shop": "supermarket",
        "source:addr": "EMUiA (emuia.geoportal.gov.pl)"
      }
    },
    {
      "type": "Feature",
      "id": 230453207,
      "geometry": {
        "type": "LineString",
        "coordinates": [
          [
            19.421655,
            51.790212
          ],
          [
            19.421718,
            51.790315
          ],
          [
            19.421967,
            51.790256
          ],
          [
            19.422009,
            51.790323
          ],
          [
            19.421938,
            51.79034
          ],
          [
            19.421941,
            51.790345
          ],
          [
            19.422186,
            51.790287
          ],
          [
            19.422161,
            51.790246
          ],
          [
            19.422111,
            51.790165
          ],
          [
            19.422561,
            51.790059
          ],
          [
            19.422454,
            51.789886
          ],
          [
            19.421819,
            51.790037
          ],
          [
            19.421892,
            51.790155
          ],
          [
            19.421893,
            51.790156
          ],
          [
            19.421775,
            51.790183
          ],
          [
            19.421655,
            51.790212
          ]
        ]
      },
      "properties": {
        "addr:city": "Łódź",
        "addr:housenumber": "148",
        "addr:postcode": "91-089",
        "addr:street": "Aleja Włókniarzy",
        "building": "yes",
        "name": "ALDI",
        "opening_hours": "Mo-Sa 8:00-21:00; Su 9:00-18:00",
        "operator": "Aldi",
        "shop": "supermarket",
        "short_name": "Aldi"
      }
    },
    {
      "type": "Feature",
      "id": 255287559,
      "geometry": {
        "type": "LineString",
        "coordinates": [
          [
            19.455385,
            51.792269
          ],
          [
            19.455339,
            51.792036
          ],
          [
            19.455344,
            51.792036
          ],
          [
            19.45534,
            51.792011
          ],
          [
            19.455415,
            51.792006
          ],
          [
            19.45542,
            51.79203
          ],
          [
            19.455527,
            51.792022
          ],
          [
            19.455516,
            51.791971
          ],
          [
            19.455542,
            51.791969
          ],
          [
            19.455541,
            51.791961
          ],
          [
            19.4556,
            51.791956
          ],
          [
            19.455602,
            51.791965
          ],
          [
            19.455795,
            51.79195
          ],
          [
            19.455805,
            51.792001
          ],
          [
            19.456108,
            51.791978
          ],
          [
            19.456108,
            51.791975
          ],
          [
            19.456115,
            51.791974
          ],
          [
            19.456163,
            51.792213
          ],
          [
            19.456157,
            51.792213
          ],
          [
            19.456156,
            51.79221
          ],
          [
            19.456056,
            51.792218
          ],
          [
            19.456066,
            51.792272
          ],
          [
            19.455927,
            51.792282
          ],
          [
            19.455917,
            51.792228
          ],
          [
            19.455385,
            51.792269
          ]
        ]
      },
      "properties": {
        "addr:city": "Łódź",
        "addr:country": "PL",
        "addr:housenumber": "55",
        "addr:postcode": "91-839",
        "addr:street": "Łagiewnicka",
        "brand": "Lidl",
        "brand:wikidata": "Q151954",
        "brand:wikipedia": "en:Lidl",
        "building": "yes",
        "name": "Lidl",
        "opening_hours": "Mo-Sa 08:00-21:00, Su 09:00-18:00",
        "shop": "supermarket",
        "source": "mapa.lodz.pl",
        "source:addr": "EMUiA (emuia.geoportal.gov.pl)"
      }
    },
    {
      "type": "Feature",
      "id": 256761431,
      "geometry": {
        "type": "LineString",
        "coordinates": [
          [
            19.460523,
            51.78393
          ],
          [
            19.460597,
            51.783949
          ],
          [
            19.460721,
            51.78398
          ],
          [
            19.460884,
            51.784022
          ],
          [
            19.460953,
            51.784039
          ],
          [
            19.461024,
            51.783927
          ],
          [
            19.460856,
            51.783883
          ],
          [
            19.460555,
            51.783805
          ],
          [
            19.460523,
            51.78393
          ]
        ]
      },
      "properties": {
        "building": "yes",
        "name": "Tesco",
        "opening_hours": "Mo-Sa 07:00-22:00; Su 09:00-20:00",
        "shop": "supermarket"
      }
    },
    {
      "type": "Feature",
      "id": 281556341,
      "geometry": {
        "type": "LineString",
        "coordinates": [
          [
            19.44056,
            51.817051
          ],
          [
            19.440882,
            51.817137
          ],
          [
            19.440852,
            51.81718
          ],
          [
            19.441105,
            51.817247
          ],
          [
            19.441139,
            51.817198
          ],
          [
            19.441279,
            51.816996
          ],
          [
            19.440784,
            51.816864
          ],
          [
            19.44078,
            51.81687
          ],
          [
            19.4407,
            51.816849
          ],
          [
            19.44056,
            51.817051
          ]
        ]
      },
      "properties": {
        "addr:city": "Łódź",
        "addr:housename": "Biedronka",
        "addr:housenumber": "12",
        "addr:postcode": "91-729",
        "addr:street": "Aleje Generała Władysława Sikorskiego",
        "building": "retail",
        "name": "Biedronka",
        "operator": "Jeronimo Martins Polska S.A.",
        "shop": "supermarket"
      }
    },
    {
      "type": "Feature",
      "id": 286468714,
      "geometry": {
        "type": "LineString",
        "coordinates": [
          [
            19.476182,
            51.799098
          ],
          [
            19.476631,
            51.79908
          ],
          [
            19.476701,
            51.799765
          ],
          [
            19.476252,
            51.799782
          ],
          [
            19.476182,
            51.799098
          ]
        ]
      },
      "properties": {
        "addr:city": "Łódź",
        "addr:country": "PL",
        "addr:housenumber": "1",
        "addr:street": "Zagajnikowa",
        "building": "supermarket",
        "name": "Lidl",
        "opening_hours": "Mo-Sa 06:00-22:00; Su 09:00-19:00",
        "shop": "supermarket",
        "source:addr": "EMUiA (emuia.geoportal.gov.pl)"
      }
    },
    {
      "type": "Feature",
      "id": 321034208,
      "geometry": {
        "type": "LineString",
        "coordinates": [
          [
            19.435107,
            51.824647
          ],
          [
            19.435119,
            51.82463
          ],
          [
            19.435128,
            51.824617
          ],
          [
            19.435142,
            51.824596
          ],
          [
            19.435146,
            51.824589
          ],
          [
            19.43517,
            51.824554
          ],
          [
            19.435239,
            51.824571
          ],
          [
            19.435246,
            51.82456
          ],
          [
            19.435319,
            51.824451
          ],
          [
            19.435409,
            51.824474
          ],
          [
            19.435786,
            51.82457
          ],
          [
            19.435856,
            51.824588
          ],
          [
            19.435943,
            51.82461
          ],
          [
            19.4358,
            51.824824
          ],
          [
            19.435107,
            51.824647
          ]
        ]
      },
      "properties": {
        "addr:city": "Łódź",
        "addr:country": "PL",
        "addr:housenumber": "4",
        "addr:postcode": "91-495",
        "addr:street": "Urocza",
        "building": "yes",
        "contact:website": "http://www.netto.pl",
        "name": "Netto",
        "opening_hours": "Mo-Sa 06:00-22:00;Su 08:00-20:00",
        "operator": "Netto Sp. z o.o.",
        "shop": "supermarket",
        "website": "http://www.netto.pl"
      }
    },
    {
      "type": "Feature",
      "id": 325195610,
      "geometry": {
        "type": "LineString",
        "coordinates": [
          [
            19.393111,
            51.797396
          ],
          [
            19.393079,
            51.797329
          ],
          [
            19.393155,
            51.797315
          ],
          [
            19.393076,
            51.797152
          ],
          [
            19.393679,
            51.797042
          ],
          [
            19.393733,
            51.797032
          ],
          [
            19.393843,
            51.797262
          ],
          [
            19.393111,
            51.797396
          ]
        ]
      },
      "properties": {
        "addr:city": "Łódź",
        "addr:housenumber": "25",
        "addr:postcode": "91-140",
        "addr:street": "Grabieniec",
        "building": "yes",
        "name": "ALDI",
        "shop": "supermarket"
      }
    },
    {
      "type": "Feature",
      "id": 343973281,
      "geometry": {
        "type": "LineString",
        "coordinates": [
          [
            19.448445,
            51.751388
          ],
          [
            19.448965,
            51.751431
          ],
          [
            19.448988,
            51.751323
          ],
          [
            19.448996,
            51.751287
          ],
          [
            19.448691,
            51.751262
          ],
          [
            19.448476,
            51.751244
          ],
          [
            19.448445,
            51.751388
          ]
        ]
      },
      "properties": {
        "addr:city": "Łódź",
        "addr:housenumber": "36",
        "addr:street": "Radwańska",
        "brand": "Dino",
        "brand:wikidata": "Q11694239",
        "brand:wikipedia": "pl:Dino Polska",
        "building": "retail",
        "name": "Dino",
        "opening_hours": "Mo-Su 07:00-22:00",
        "shop": "supermarket",
        "source:addr": "EMUiA (emuia.geoportal.gov.pl)"
      }
    },
    {
      "type": "Feature",
      "id": 361248703,
      "geometry": {
        "type": "LineString",
        "coordinates": [
          [
            19.408095,
            51.792751
          ],
          [
            19.408712,
            51.79267
          ],
          [
            19.408621,
            51.792405
          ],
          [
            19.408351,
            51.79244
          ],
          [
            19.408367,
            51.792487
          ],
          [
            19.40802,
            51.792532
          ],
          [
            19.408095,
            51.792751
          ]
        ]
      },
      "properties": {
        "addr:city": "Łódź",
        "addr:housenumber": "5",
        "addr:postcode": "91-030",
        "addr:street": "Jana Woronicza",
        "building": "supermarket",
        "name": "Biedronka",
        "opening_hours": "Mo-Sa 7:00-21:00; Su 9:00-20:00",
        "operator": "Jeronimo Martins Polska S.A.",
        "shop": "supermarket",
        "website": "http://biedronka.pl/"
      }
    },
    {
      "type": "Feature",
      "id": 399235555,
      "geometry": {
        "type": "LineString",
        "coordinates": [
          [
            19.438891,
            51.792482
          ],
          [
            19.43888,
            51.792484
          ],
          [
            19.438641,
            51.792511
          ],
          [
            19.438456,
            51.792533
          ],
          [
            19.438357,
            51.792206
          ],
          [
            19.438513,
            51.792188
          ],
          [
            19.438527,
            51.792232
          ],
          [
            19.438805,
            51.7922
          ],
          [
            19.438825,
            51.792264
          ],
          [
            19.438853,
            51.792357
          ],
          [
            19.438886,
            51.792465
          ],
          [
            19.438891,
            51.792482
          ]
        ]
      },
      "properties": {
        "addr:city": "Łódź",
        "addr:housenumber": "4",
        "addr:postcode": "91-316",
        "addr:street": "Srebrna",
        "building": "retail",
        "name": "Biedronka",
        "opening_hours": "Mo-Sa 7:00-21:00; Su 9:00-20:00",
        "operator": "Jeronimo Martins Polska S.A.",
        "operator:wikidata": "Q857182",
        "operator:wikipedia": "pl:Biedronka (sieć handlowa)",
        "shop": "supermarket",
        "website": "http://biedronka.pl/"
      }
    },
    {
      "type": "Feature",
      "id": 402781445,
      "geometry": {
        "type": "LineString",
        "coordinates": [
          [
            19.457935,
            51.800093
          ],
          [
            19.457936,
            51.800102
          ],
          [
            19.457835,
            51.800107
          ],
          [
            19.457846,
            51.800191
          ],
          [
            19.45797,
            51.800185
          ],
          [
            19.457981,
            51.800279
          ],
          [
            19.458055,
            51.800275
          ],
          [
            19.458057,
            51.800292
          ],
          [
            19.45806,
            51.800313
          ],
          [
            19.458224,
            51.800305
          ],
          [
            19.458218,
            51.800266
          ],
          [
            19.45861,
            51.800246
          ],
          [
            19.458617,
            51.800295
          ],
          [
            19.458927,
            51.800281
          ],
          [
            19.458895,
            51.800044
          ],
          [
            19.458015,
            51.800089
          ],
          [
            19.457935,
            51.800093
          ]
        ]
      },
      "properties": {
        "addr:city": "Łódź",
        "addr:country": "PL",
        "addr:housenumber": "52",
        "addr:postcode": "91-855",
        "addr:street": "Rysownicza",
        "building": "yes",
        "building:levels": "1",
        "name": "Aldi",
        "operator": "Aldi",
        "shop": "supermarket",
        "source": "mapa.lodz.pl",
        "source:addr": "EMUiA (emuia.geoportal.gov.pl)"
      }
    },
    {
      "type": "Feature",
      "id": 434804379,
      "geometry": {
        "type": "LineString",
        "coordinates": [
          [
            19.442485,
            51.797557
          ],
          [
            19.442538,
            51.797784
          ],
          [
            19.442616,
            51.797777
          ],
          [
            19.442612,
            51.797758
          ],
          [
            19.443026,
            51.797721
          ],
          [
            19.443015,
            51.797674
          ],
          [
            19.443137,
            51.797663
          ],
          [
            19.443226,
            51.797537
          ],
          [
            19.443097,
            51.797503
          ],
          [
            19.442485,
            51.797557
          ]
        ]
      },
      "properties": {
        "addr:city": "Łódź",
        "addr:housenumber": "1A",
        "addr:postcode": "91-323",
        "addr:street": "Pojezierska",
        "building": "supermarket",
        "name": "Delikatesy Centrum",
        "opening_hours": "Mo-Sa 6:30-21:30; Su 10:00-19:30",
        "shop": "supermarket",
        "website": "https://www.delikatesy.pl/"
      }
    },
    {
      "type": "Feature",
      "id": 543067554,
      "geometry": {
        "type": "LineString",
        "coordinates": [
          [
            19.469978,
            51.777261
          ],
          [
            19.469646,
            51.777232
          ],
          [
            19.469787,
            51.776619
          ],
          [
            19.469868,
            51.776626
          ],
          [
            19.469855,
            51.776685
          ],
          [
            19.470075,
            51.776704
          ],
          [
            19.469977,
            51.77713
          ],
          [
            19.470008,
            51.777132
          ],
          [
            19.469978,
            51.777261
          ]
        ]
      },
      "properties": {
        "addr:city": "Łódź",
        "addr:housenumber": "65A",
        "addr:postcode": "90-218",
        "addr:street": "Pomorska",
        "brand:wikidata": "Q552652",
        "brand:wikipedia": "pl:Netto (duńska sieć handlowa)",
        "building": "supermarket",
        "name": "Netto",
        "opening_hours": "Mo-Sa 6:00-22:00; Su 8:00-20:00",
        "shop": "supermarket",
        "website": "https://netto.pl/"
      }
    },
    {
      "type": "Feature",
      "id": 545059698,
      "geometry": {
        "type": "LineString",
        "coordinates": [
          [
            19.430822,
            51.819367
          ],
          [
            19.431052,
            51.81942
          ],
          [
            19.431055,
            51.819415
          ],
          [
            19.43104,
            51.819411
          ],
          [
            19.431059,
            51.819381
          ],
          [
            19.431072,
            51.819384
          ],
          [
            19.431117,
            51.819309
          ],
          [
            19.431095,
            51.819304
          ],
          [
            19.431177,
            51.819168
          ],
          [
            19.43097,
            51.81912
          ],
          [
            19.430822,
            51.819367
          ]
        ]
      },
      "properties": {
        "brand": "Stokrotka",
        "brand:wikidata": "Q9345945",
        "brand:wikipedia": "pl:Stokrotka (sieć handlowa)",
        "building": "yes",
        "name": "Stokrotka",
        "shop": "supermarket"
      }
    },
    {
      "type": "Feature",
      "id": 633476578,
      "geometry": {
        "type": "LineString",
        "coordinates": [
          [
            19.473437,
            51.807023
          ],
          [
            19.473428,
            51.807007
          ],
          [
            19.473336,
            51.806854
          ],
          [
            19.473539,
            51.806807
          ],
          [
            19.473498,
            51.806739
          ],
          [
            19.473798,
            51.80667
          ],
          [
            19.473811,
            51.806667
          ],
          [
            19.473852,
            51.806734
          ],
          [
            19.47392,
            51.806719
          ],
          [
            19.473975,
            51.806812
          ],
          [
            19.47402,
            51.806887
          ],
          [
            19.473437,
            51.807023
          ]
        ]
      },
      "properties": {
        "addr:city": "Łódź",
        "addr:housenumber": "1",
        "addr:street": "Tęczowa",
        "building": "yes",
        "building:colour": "#d3d3d3",
        "name": "Biedronka",
        "opening_hours": "07:00-22:00",
        "roof:colour": "#d3d3d3",
        "shop": "supermarket",
        "source:addr": "EMUiA (emuia.geoportal.gov.pl)"
      }
    },
    {
      "type": "Feature",
      "id": 690588545,
      "geometry": {
        "type": "LineString",
        "coordinates": [
          [
            19.432557,
            51.758213
          ],
          [
            19.432133,
            51.758744
          ],
          [
            19.431717,
            51.758621
          ],
          [
            19.431446,
            51.758541
          ],
          [
            19.431509,
            51.75846
          ],
          [
            19.431548,
            51.758472
          ],
          [
            19.431584,
            51.758483
          ],
          [
            19.431942,
            51.758027
          ],
          [
            19.432557,
            51.758213
          ]
        ]
      },
      "properties": {
        "addr:housenumber": "53",
        "addr:street": "Karolewska",
        "brand": "Lidl",
        "brand:wikidata": "Q151954",
        "brand:wikipedia": "en:Lidl",
        "building": "yes",
        "name": "Lidl",
        "shop": "supermarket"
      }
    },
    {
      "type": "Feature",
      "id": 27523496,
      "geometry": {
        "type": "Point",
        "coordinates": [
          19.421956333333334,
          51.78835558333333
        ]
      },
      "properties": {
        "addr:city": "Łódź",
        "addr:housenumber": "156",
        "addr:street": "Aleja Włókniarzy",
        "building": "yes",
        "name": "Tesco",
        "opening_hours": "Mo-Sa 06:00-22:00",
        "shop": "supermarket",
        "source:addr": "EMUiA (emuia.geoportal.gov.pl)",
        "website": "https://tesco.pl/sklepy/centra-handlowe/lodz-al-wlokniarzy-156/"
      }
    },
    {
      "type": "Feature",
      "id": 27747423,
      "geometry": {
        "type": "Point",
        "coordinates": [
          19.469060999999996,
          51.79889444444445
        ]
      },
      "properties": {
        "addr:city": "Łódź",
        "addr:housenumber": "45",
        "addr:street": "Inflancka",
        "building": "retail",
        "building:levels": "2",
        "name": "E. Leclerc",
        "operator": "E. Leclerc",
        "shop": "supermarket",
        "source:addr": "EMUiA (emuia.geoportal.gov.pl)"
      }
    },
    {
      "type": "Feature",
      "id": 27747555,
      "geometry": {
        "type": "Point",
        "coordinates": [
          19.465343111111114,
          51.799540555555566
        ]
      },
      "properties": {
        "addr:city": "Łódź",
        "addr:housenumber": "104",
        "addr:street": "Marysińska",
        "building": "yes",
        "name": "Tesco",
        "shop": "supermarket",
        "source:addr": "EMUiA (emuia.geoportal.gov.pl)"
      }
    },
    {
      "type": "Feature",
      "id": 27803185,
      "geometry": {
        "type": "Point",
        "coordinates": [
          19.4582686,
          51.795842199999996
        ]
      },
      "properties": {
        "addr:city": "Łódź",
        "addr:country": "PL",
        "addr:housenumber": "2",
        "addr:postcode": "91-843",
        "addr:street": "Kowalska",
        "brand": "Biedronka",
        "brand:wikidata": "Q857182",
        "brand:wikipedia": "pl:Biedronka (sieć handlowa)",
        "building": "retail",
        "building:levels": "1",
        "name": "Biedronka",
        "operator": "Jeronimo Martins Polska S.A.",
        "shop": "supermarket",
        "source": "mapa.lodz.pl",
        "source:addr": "EMUiA (emuia.geoportal.gov.pl)"
      }
    },
    {
      "type": "Feature",
      "id": 37550743,
      "geometry": {
        "type": "Point",
        "coordinates": [
          19.449832133333338,
          51.77816766666667
        ]
      },
      "properties": {
        "addr:city": "Łódź",
        "addr:housenumber": "18",
        "addr:street": "Ogrodowa",
        "brand": "Biedronka",
        "brand:wikidata": "Q857182",
        "brand:wikipedia": "pl:Biedronka (sieć handlowa)",
        "building": "retail",
        "name": "Biedronka",
        "operator": "Jeronimo Martins Polska S.A.",
        "shop": "supermarket"
      }
    },
    {
      "type": "Feature",
      "id": 101076952,
      "geometry": {
        "type": "Point",
        "coordinates": [
          19.390614666666668,
          51.797614833333334
        ]
      },
      "properties": {
        "addr:city": "Łódź",
        "addr:housenumber": "19",
        "addr:street": "Grabieniec",
        "brand": "Carrefour Market",
        "brand:wikidata": "Q2689639",
        "building": "yes",
        "name": "Carrefour Market",
        "shop": "supermarket",
        "source:addr": "EMUiA (emuia.geoportal.gov.pl)"
      }
    },
    {
      "type": "Feature",
      "id": 102851160,
      "geometry": {
        "type": "Point",
        "coordinates": [
          19.4240368,
          51.815169000000004
        ]
      },
      "properties": {
        "addr:city": "Łódź",
        "addr:housenumber": "5A",
        "addr:postcode": "91-370",
        "addr:street": "11 Listopada",
        "building": "yes",
        "building:levels": "1",
        "name": "Tesco",
        "operator": "Tesco Polska Sp. z o.o.",
        "shop": "supermarket",
        "source:addr": "EMUiA (emuia.geoportal.gov.pl)"
      }
    },
    {
      "type": "Feature",
      "id": 102877985,
      "geometry": {
        "type": "Point",
        "coordinates": [
          19.418106857142856,
          51.81845957142857
        ]
      },
      "properties": {
        "addr:city": "Łódź",
        "addr:housenumber": "36",
        "addr:street": "11 Listopada",
        "building": "yes",
        "name": "Supersam Samscan",
        "shop": "supermarket",
        "source:addr": "EMUiA (emuia.geoportal.gov.pl)"
      }
    },
    {
      "type": "Feature",
      "id": 103127651,
      "geometry": {
        "type": "Point",
        "coordinates": [
          19.44600766666667,
          51.79175166666666
        ]
      },
      "properties": {
        "addr:city": "Łódź",
        "addr:country": "PL",
        "addr:housenumber": "104a",
        "addr:postcode": "91-303",
        "addr:street": "Zgierska",
        "building": "yes",
        "name": "Kaufland",
        "shop": "supermarket",
        "source": "mapa.lodz.pl",
        "source:addr": "EMUiA (emuia.geoportal.gov.pl)"
      }
    },
    {
      "type": "Feature",
      "id": 103422302,
      "geometry": {
        "type": "Point",
        "coordinates": [
          19.434149166666668,
          51.79041444444445
        ]
      },
      "properties": {
        "addr:city": "Łódź",
        "addr:housenumber": "103/105",
        "addr:street": "Bolesława Limanowskiego",
        "building": "yes",
        "building:levels": "1",
        "name": "Lidl",
        "opening_hours": "Mo-Sa 08:00-21:00, Su 09:00-18:00",
        "shop": "supermarket",
        "source": "mapa.lodz.pl"
      }
    },
    {
      "type": "Feature",
      "id": 103694658,
      "geometry": {
        "type": "Point",
        "coordinates": [
          19.453936117647057,
          51.79510876470589
        ]
      },
      "properties": {
        "addr:city": "Łódź",
        "addr:country": "PL",
        "addr:housenumber": "2",
        "addr:postcode": "91-463",
        "addr:street": "Stefana",
        "building": "yes",
        "shop": "supermarket",
        "source": "mapa.lodz.pl",
        "source:addr": "EMUiA (emuia.geoportal.gov.pl)"
      }
    },
    {
      "type": "Feature",
      "id": 103695894,
      "geometry": {
        "type": "Point",
        "coordinates": [
          19.460264833333333,
          51.79813133333334
        ]
      },
      "properties": {
        "addr:city": "Łódź",
        "addr:country": "PL",
        "addr:housenumber": "142/154",
        "addr:postcode": "91-857",
        "addr:street": "Franciszkańska",
        "building": "yes",
        "contact:website": "http://www.netto.pl",
        "name": "Netto",
        "opening_hours": "Mo-Sa 06:00-21:00;Su 08:00-20:00",
        "shop": "supermarket",
        "source": "mapa.lodz.pl",
        "source:addr": "EMUiA (emuia.geoportal.gov.pl)",
        "website": "http://www.netto.pl"
      }
    },
    {
      "type": "Feature",
      "id": 104693245,
      "geometry": {
        "type": "Point",
        "coordinates": [
          19.455568083333336,
          51.7993165
        ]
      },
      "properties": {
        "addr:city": "Łódź",
        "addr:country": "PL",
        "addr:housenumber": "118",
        "addr:postcode": "91-471",
        "addr:street": "Łagiewnicka",
        "building": "yes",
        "name": "Delikatesy Centrum",
        "shop": "supermarket",
        "source": "mapa.lodz.pl",
        "source:addr": "EMUiA (emuia.geoportal.gov.pl)"
      }
    },
    {
      "type": "Feature",
      "id": 105636090,
      "geometry": {
        "type": "Point",
        "coordinates": [
          19.469447625,
          51.77866325
        ]
      },
      "properties": {
        "addr:city": "Łódź",
        "addr:housenumber": "58",
        "addr:street": "Pomorska",
        "building": "supermarket",
        "building:levels": "2",
        "name": "Biedronka",
        "operator": "Jeronimo Martins Polska S.A.",
        "shop": "supermarket",
        "source:addr": "EMUiA (emuia.geoportal.gov.pl)"
      }
    },
    {
      "type": "Feature",
      "id": 106778168,
      "geometry": {
        "type": "Point",
        "coordinates": [
          19.465163999999998,
          51.79348500000001
        ]
      },
      "properties": {
        "addr:city": "Łódź",
        "addr:housenumber": "76/80",
        "addr:street": "Marysińska",
        "building": "yes",
        "name": "Stokrotka",
        "shop": "supermarket",
        "source:addr": "EMUiA (emuia.geoportal.gov.pl)"
      }
    },
    {
      "type": "Feature",
      "id": 106923174,
      "geometry": {
        "type": "Point",
        "coordinates": [
          19.45331105263158,
          51.785100052631584
        ]
      },
      "properties": {
        "addr:city": "Łódź",
        "addr:housenumber": "13/15",
        "addr:street": "Zgierska",
        "building": "supermarket",
        "building:levels": "1",
        "name": "Biedronka",
        "operator": "Jeronimo Martins Polska S.A.",
        "shop": "supermarket",
        "source:addr": "EMUiA (emuia.geoportal.gov.pl)"
      }
    },
    {
      "type": "Feature",
      "id": 111683288,
      "geometry": {
        "type": "Point",
        "coordinates": [
          19.433839217391306,
          51.75877347826086
        ]
      },
      "properties": {
        "addr:city": "Łódź",
        "addr:housenumber": "236",
        "addr:street": "Aleja Włókniarzy",
        "building": "yes",
        "name": "Market \"KOMFORT\"",
        "shop": "supermarket",
        "source:addr": "EMUiA (emuia.geoportal.gov.pl)",
        "wheelchair": "yes"
      }
    },
    {
      "type": "Feature",
      "id": 114648648,
      "geometry": {
        "type": "Point",
        "coordinates": [
          19.490488272727273,
          51.778904000000004
        ]
      },
      "properties": {
        "addr:city": "Łódź",
        "addr:housenumber": "3",
        "addr:street": "Tamka",
        "building": "supermarket",
        "name": "Biedronka",
        "operator": "Jeronimo Martins Polska S.A.",
        "shop": "supermarket",
        "source:addr": "EMUiA (emuia.geoportal.gov.pl)"
      }
    },
    {
      "type": "Feature",
      "id": 126757920,
      "geometry": {
        "type": "Point",
        "coordinates": [
          19.45323292307692,
          51.79269515384616
        ]
      },
      "properties": {
        "addr:city": "Łódź",
        "brand": "Biedronka",
        "brand:wikidata": "Q857182",
        "brand:wikipedia": "pl:Biedronka (sieć handlowa)",
        "building": "retail",
        "name": "Biedronka",
        "operator": "Jeronimo Martins Polska S.A.",
        "shop": "supermarket",
        "source": "mapa.lodz.pl"
      }
    },
    {
      "type": "Feature",
      "id": 136107334,
      "geometry": {
        "type": "Point",
        "coordinates": [
          19.471773363636363,
          51.777503454545446
        ]
      },
      "properties": {
        "building": "yes",
        "name": "Lidl",
        "opening_hours": "Mo-Sa 08:00-21:00; Su 08:00-18:00",
        "shop": "supermarket"
      }
    },
    {
      "type": "Feature",
      "id": 138122469,
      "geometry": {
        "type": "Point",
        "coordinates": [
          19.432152090909092,
          51.77384490909092
        ]
      },
      "properties": {
        "addr:city": "Łódź",
        "addr:housenumber": "8",
        "addr:street": "Srebrzyńska",
        "building": "yes",
        "building:levels": "1",
        "name": "Netto",
        "shop": "supermarket"
      }
    },
    {
      "type": "Feature",
      "id": 139832348,
      "geometry": {
        "type": "Point",
        "coordinates": [
          19.44646488888889,
          51.77032588888889
        ]
      },
      "properties": {
        "addr:city": "Łódź",
        "addr:housenumber": "32",
        "addr:street": "Stefana Żeromskiego",
        "brand": "Biedronka",
        "brand:wikidata": "Q857182",
        "brand:wikipedia": "pl:Biedronka (sieć handlowa)",
        "building": "retail",
        "building:levels": "1",
        "email": "bok@biedronka.eu",
        "name": "Biedronka",
        "name:ru": "Бедронка",
        "opening_hours": "Mo-Sa 06:30-22:00; Su 08:00-21:00",
        "operator": "Jeronimo Martins Polska S.A.",
        "shop": "supermarket",
        "source": "mapa.lodz.pl",
        "website": "http://www.biedronka.pl/"
      }
    },
    {
      "type": "Feature",
      "id": 152316255,
      "geometry": {
        "type": "Point",
        "coordinates": [
          19.455681,
          51.75766383333333
        ]
      },
      "properties": {
        "addr:city": "Łódź",
        "addr:housenumber": "103/105",
        "addr:street": "Aleja Tadeusza Kościuszki",
        "brand": "Biedronka",
        "brand:wikidata": "Q857182",
        "brand:wikipedia": "pl:Biedronka (sieć handlowa)",
        "building": "retail",
        "building:levels": "1",
        "name": "Biedronka",
        "operator": "Jeronimo Martins Polska S.A.",
        "shop": "supermarket",
        "source:addr": "EMUiA (emuia.geoportal.gov.pl)"
      }
    },
    {
      "type": "Feature",
      "id": 174506816,
      "geometry": {
        "type": "Point",
        "coordinates": [
          19.450804,
          51.77604885714287
        ]
      },
      "properties": {
        "addr:housenumber": "16",
        "addr:postcode": "90-701",
        "addr:street": "Legionów",
        "building": "yes",
        "fax": "+48 42 63 34 836",
        "name": "Carrefour Express",
        "opening_hours": "Mo-Sa 07:00-21:00; Su 09:00-19:00",
        "operator:wikidata": "Q217599",
        "operator:wikipedia": "pl:Carrefour",
        "phone": "+48 42 63 34 836",
        "shop": "supermarket",
        "source": "mapa.lodz.pl",
        "website": "https://www.carrefour.pl/"
      }
    },
    {
      "type": "Feature",
      "id": 180383703,
      "geometry": {
        "type": "Point",
        "coordinates": [
          19.441933736842106,
          51.77864094736842
        ]
      },
      "properties": {
        "addr:city": "Łódź",
        "addr:housenumber": "5",
        "addr:postcode": "91-071",
        "addr:street": "Jana Karskiego",
        "brand": "Auchan",
        "brand:wikidata": "Q758603",
        "brand:wikipedia": "en:Auchan",
        "building": "yes",
        "level": "1",
        "name": "Auchan",
        "opening_hours": "Mo-Sa 08:00-22:00; Su 09:00-21:00; PH off",
        "operator": "Auchan Polska Sp. z o.o.",
        "shop": "supermarket",
        "website": "https://www.auchan.pl/"
      }
    },
    {
      "type": "Feature",
      "id": 184312038,
      "geometry": {
        "type": "Point",
        "coordinates": [
          19.449224235294118,
          51.76677788235294
        ]
      },
      "properties": {
        "building": "yes",
        "name": "Tesco",
        "opening_hours": "Mo-Sa 07:00-22:00; Su 09:00-20:00",
        "shop": "supermarket"
      }
    },
    {
      "type": "Feature",
      "id": 190005835,
      "geometry": {
        "type": "Point",
        "coordinates": [
          19.4812732,
          51.772048399999996
        ]
      },
      "properties": {
        "addr:city": "Łódź",
        "addr:housenumber": "31C",
        "addr:street": "Doktora Stefana Kopcińskiego",
        "building": "supermarket",
        "name": "Tesco",
        "shop": "supermarket",
        "source:addr": "EMUiA (emuia.geoportal.gov.pl)"
      }
    },
    {
      "type": "Feature",
      "id": 199266679,
      "geometry": {
        "type": "Point",
        "coordinates": [
          19.42040966666666,
          51.778763
        ]
      },
      "properties": {
        "addr:city": "Łódź",
        "addr:housenumber": "3/11",
        "addr:street": "Tomasza Zana",
        "building": "yes",
        "name": "Lidl",
        "opening_hours": "Mo-Sa 08:00-21:00, Su 09:00-18:00",
        "shop": "supermarket",
        "source": "mapa.lodz.pl",
        "source:addr": "EMUiA (emuia.geoportal.gov.pl)"
      }
    },
    {
      "type": "Feature",
      "id": 199268132,
      "geometry": {
        "type": "Point",
        "coordinates": [
          19.426150774193548,
          51.772303580645165
        ]
      },
      "properties": {
        "addr:city": "Łódź",
        "addr:housenumber": "8",
        "addr:street": "Marcina Kasprzaka",
        "building": "yes",
        "building:levels": "1.0",
        "name": "makro",
        "shop": "supermarket",
        "source:addr": "EMUiA (emuia.geoportal.gov.pl)"
      }
    },
    {
      "type": "Feature",
      "id": 230453207,
      "geometry": {
        "type": "Point",
        "coordinates": [
          19.4219834375,
          51.7901985625
        ]
      },
      "properties": {
        "addr:city": "Łódź",
        "addr:housenumber": "148",
        "addr:postcode": "91-089",
        "addr:street": "Aleja Włókniarzy",
        "building": "yes",
        "name": "ALDI",
        "opening_hours": "Mo-Sa 8:00-21:00; Su 9:00-18:00",
        "operator": "Aldi",
        "shop": "supermarket",
        "short_name": "Aldi"
      }
    },
    {
      "type": "Feature",
      "id": 255287559,
      "geometry": {
        "type": "Point",
        "coordinates": [
          19.45573316,
          51.7920806
        ]
      },
      "properties": {
        "addr:city": "Łódź",
        "addr:country": "PL",
        "addr:housenumber": "55",
        "addr:postcode": "91-839",
        "addr:street": "Łagiewnicka",
        "brand": "Lidl",
        "brand:wikidata": "Q151954",
        "brand:wikipedia": "en:Lidl",
        "building": "yes",
        "name": "Lidl",
        "opening_hours": "Mo-Sa 08:00-21:00, Su 09:00-18:00",
        "shop": "supermarket",
        "source": "mapa.lodz.pl",
        "source:addr": "EMUiA (emuia.geoportal.gov.pl)"
      }
    },
    {
      "type": "Feature",
      "id": 256761431,
      "geometry": {
        "type": "Point",
        "coordinates": [
          19.460737333333334,
          51.78394055555555
        ]
      },
      "properties": {
        "building": "yes",
        "name": "Tesco",
        "opening_hours": "Mo-Sa 07:00-22:00; Su 09:00-20:00",
        "shop": "supermarket"
      }
    },
    {
      "type": "Feature",
      "id": 281556341,
      "geometry": {
        "type": "Point",
        "coordinates": [
          19.4408641,
          51.817044300000006
        ]
      },
      "properties": {
        "addr:city": "Łódź",
        "addr:housename": "Biedronka",
        "addr:housenumber": "12",
        "addr:postcode": "91-729",
        "addr:street": "Aleje Generała Władysława Sikorskiego",
        "building": "retail",
        "name": "Biedronka",
        "operator": "Jeronimo Martins Polska S.A.",
        "shop": "supermarket"
      }
    },
    {
      "type": "Feature",
      "id": 286468714,
      "geometry": {
        "type": "Point",
        "coordinates": [
          19.476389599999997,
          51.799364600000004
        ]
      },
      "properties": {
        "addr:city": "Łódź",
        "addr:country": "PL",
        "addr:housenumber": "1",
        "addr:street": "Zagajnikowa",
        "building": "supermarket",
        "name": "Lidl",
        "opening_hours": "Mo-Sa 06:00-22:00; Su 09:00-19:00",
        "shop": "supermarket",
        "source:addr": "EMUiA (emuia.geoportal.gov.pl)"
      }
    },
    {
      "type": "Feature",
      "id": 321034208,
      "geometry": {
        "type": "Point",
        "coordinates": [
          19.4353678,
          51.8245952
        ]
      },
      "properties": {
        "addr:city": "Łódź",
        "addr:country": "PL",
        "addr:housenumber": "4",
        "addr:postcode": "91-495",
        "addr:street": "Urocza",
        "building": "yes",
        "contact:website": "http://www.netto.pl",
        "name": "Netto",
        "opening_hours": "Mo-Sa 06:00-22:00;Su 08:00-20:00",
        "operator": "Netto Sp. z o.o.",
        "shop": "supermarket",
        "website": "http://www.netto.pl"
      }
    },
    {
      "type": "Feature",
      "id": 325195610,
      "geometry": {
        "type": "Point",
        "coordinates": [
          19.393348375000002,
          51.797240499999994
        ]
      },
      "properties": {
        "addr:city": "Łódź",
        "addr:housenumber": "25",
        "addr:postcode": "91-140",
        "addr:street": "Grabieniec",
        "building": "yes",
        "name": "ALDI",
        "shop": "supermarket"
      }
    },
    {
      "type": "Feature",
      "id": 343973281,
      "geometry": {
        "type": "Point",
        "coordinates": [
          19.448715142857143,
          51.75133185714286
        ]
      },
      "properties": {
        "addr:city": "Łódź",
        "addr:housenumber": "36",
        "addr:street": "Radwańska",
        "brand": "Dino",
        "brand:wikidata": "Q11694239",
        "brand:wikipedia": "pl:Dino Polska",
        "building": "retail",
        "name": "Dino",
        "opening_hours": "Mo-Su 07:00-22:00",
        "shop": "supermarket",
        "source:addr": "EMUiA (emuia.geoportal.gov.pl)"
      }
    },
    {
      "type": "Feature",
      "id": 361248703,
      "geometry": {
        "type": "Point",
        "coordinates": [
          19.408323,
          51.792576571428576
        ]
      },
      "properties": {
        "addr:city": "Łódź",
        "addr:housenumber": "5",
        "addr:postcode": "91-030",
        "addr:street": "Jana Woronicza",
        "building": "supermarket",
        "name": "Biedronka",
        "opening_hours": "Mo-Sa 7:00-21:00; Su 9:00-20:00",
        "operator": "Jeronimo Martins Polska S.A.",
        "shop": "supermarket",
        "website": "http://biedronka.pl/"
      }
    },
    {
      "type": "Feature",
      "id": 399235555,
      "geometry": {
        "type": "Point",
        "coordinates": [
          19.43871041666667,
          51.79236699999999
        ]
      },
      "properties": {
        "addr:city": "Łódź",
        "addr:housenumber": "4",
        "addr:postcode": "91-316",
        "addr:street": "Srebrna",
        "building": "retail",
        "name": "Biedronka",
        "opening_hours": "Mo-Sa 7:00-21:00; Su 9:00-20:00",
        "operator": "Jeronimo Martins Polska S.A.",
        "operator:wikidata": "Q857182",
        "operator:wikipedia": "pl:Biedronka (sieć handlowa)",
        "shop": "supermarket",
        "website": "http://biedronka.pl/"
      }
    },
    {
      "type": "Feature",
      "id": 402781445,
      "geometry": {
        "type": "Point",
        "coordinates": [
          19.458183294117646,
          51.800203294117644
        ]
      },
      "properties": {
        "addr:city": "Łódź",
        "addr:country": "PL",
        "addr:housenumber": "52",
        "addr:postcode": "91-855",
        "addr:street": "Rysownicza",
        "building": "yes",
        "building:levels": "1",
        "name": "Aldi",
        "operator": "Aldi",
        "shop": "supermarket",
        "source": "mapa.lodz.pl",
        "source:addr": "EMUiA (emuia.geoportal.gov.pl)"
      }
    },
    {
      "type": "Feature",
      "id": 434804379,
      "geometry": {
        "type": "Point",
        "coordinates": [
          19.4428237,
          51.797653100000005
        ]
      },
      "properties": {
        "addr:city": "Łódź",
        "addr:housenumber": "1A",
        "addr:postcode": "91-323",
        "addr:street": "Pojezierska",
        "building": "supermarket",
        "name": "Delikatesy Centrum",
        "opening_hours": "Mo-Sa 6:30-21:30; Su 10:00-19:30",
        "shop": "supermarket",
        "website": "https://www.delikatesy.pl/"
      }
    },
    {
      "type": "Feature",
      "id": 543067554,
      "geometry": {
        "type": "Point",
        "coordinates": [
          19.469908,
          51.77696111111111
        ]
      },
      "properties": {
        "addr:city": "Łódź",
        "addr:housenumber": "65A",
        "addr:postcode": "90-218",
        "addr:street": "Pomorska",
        "brand:wikidata": "Q552652",
        "brand:wikipedia": "pl:Netto (duńska sieć handlowa)",
        "building": "supermarket",
        "name": "Netto",
        "opening_hours": "Mo-Sa 6:00-22:00; Su 8:00-20:00",
        "shop": "supermarket",
        "website": "https://netto.pl/"
      }
    },
    {
      "type": "Feature",
      "id": 545059698,
      "geometry": {
        "type": "Point",
        "coordinates": [
          19.431025545454546,
          51.81933145454545
        ]
      },
      "properties": {
        "brand": "Stokrotka",
        "brand:wikidata": "Q9345945",
        "brand:wikipedia": "pl:Stokrotka (sieć handlowa)",
        "building": "yes",
        "name": "Stokrotka",
        "shop": "supermarket"
      }
    },
    {
      "type": "Feature",
      "id": 633476578,
      "geometry": {
        "type": "Point",
        "coordinates": [
          19.473670916666666,
          51.806828499999995
        ]
      },
      "properties": {
        "addr:city": "Łódź",
        "addr:housenumber": "1",
        "addr:street": "Tęczowa",
        "building": "yes",
        "building:colour": "#d3d3d3",
        "name": "Biedronka",
        "opening_hours": "07:00-22:00",
        "roof:colour": "#d3d3d3",
        "shop": "supermarket",
        "source:addr": "EMUiA (emuia.geoportal.gov.pl)"
      }
    },
    {
      "type": "Feature",
      "id": 690588545,
      "geometry": {
        "type": "Point",
        "coordinates": [
          19.43188811111111,
          51.75841933333333
        ]
      },
      "properties": {
        "addr:housenumber": "53",
        "addr:street": "Karolewska",
        "brand": "Lidl",
        "brand:wikidata": "Q151954",
        "brand:wikipedia": "en:Lidl",
        "building": "yes",
        "name": "Lidl",
        "shop": "supermarket"
      }
    }
  ]
}